STARLINK-32500          
1 61935U 24207Z   26068.58174914  .00024718  00000+0  90450-3 0  9992
2 61935  42.9989 285.9761 0000744  28.1004 331.9887 15.27589215 74662
BANDWAGON-4 OBJECT Q    
1 66307U 25248Q   26067.98911828  .00022547  00000+0  92242-3 0  9991
2 66307  45.4076 295.4821 0011280 209.4727 150.5526 15.23978167 19300
