[{"OBJECT_NAME":"STARLINK-32500","OBJECT_ID":"2024-207Z","EPOCH":"2026-03-09T13:57:43.125696","MEAN_MOTION":15.27589215,"ECCENTRICITY":7.44e-5,"INCLINATION":42.9989,"RA_OF_ASC_NODE":285.9761,"ARG_OF_PERICENTER":28.1004,"MEAN_ANOMALY":331.9887,"EPHEMERIS_TYPE":0,"CLASSIFICATION_TYPE":"U","NORAD_CAT_ID":61935,"ELEMENT_SET_NO":999,"REV_AT_EPOCH":7466,"BSTAR":0.0009045,"MEAN_MOTION_DOT":0.00024718,"MEAN_MOTION_DDOT":0},{"OBJECT_NAME":"BANDWAGON-4 OBJECT Q","OBJECT_ID":"2025-248Q","EPOCH":"2026-03-08T23:44:19.819392","MEAN_MOTION":15.23978167,"ECCENTRICITY":0.00112804,"INCLINATION":45.4076,"RA_OF_ASC_NODE":295.4821,"ARG_OF_PERICENTER":209.4727,"MEAN_ANOMALY":150.5526,"EPHEMERIS_TYPE":0,"CLASSIFICATION_TYPE":"U","NORAD_CAT_ID":66307,"ELEMENT_SET_NO":999,"REV_AT_EPOCH":1930,"BSTAR":0.0009224217,"MEAN_MOTION_DOT":0.00022547,"MEAN_MOTION_DDOT":0}]
